OSCAR 7 (AO-7)          
1 07530U 74089B   26171.32384950 -.00000048  00000+0 -10319-4 0  9995
2 07530 101.9899 184.6033 0012609 124.3014 247.3322 12.53698149360912
PHASE 3B (AO-10)        
1 14129U 83058B   26170.31181399  .00000155  00000+0  00000+0 0  9991
2 14129  25.9140 219.2125 6010101 116.2527 316.1180  2.05869727295535
UOSAT 2 (UO-11)         
1 14781U 84021B   26171.17466261  .00001028  00000+0  11016-3 0  9998
2 14781  97.8059 136.7159 0007912 162.8520 197.2967 14.90789334257571
LUSAT (LO-19)           
1 20442U 90005G   26171.32155512  .00000068  00000+0  41169-4 0  9995
2 20442  98.8848 193.2136 0011288 191.6338 168.4586 14.34123955902843
EYESAT A (AO-27)        
1 22825U 93061C   26171.14644842  .00000066  00000+0  42028-4 0  9999
2 22825  98.6879 238.5590 0009541  92.1826 268.0449 14.30942955707422
ITAMSAT (IO-26)         
1 22826U 93061D   26171.12497805  .00000065  00000+0  41439-4 0  9997
2 22826  98.6826 238.4553 0010030  77.4626 282.7678 14.31369966707739
RADIO ROSTO (RS15)      
1 23439U 94085A   26171.30878827 -.00000028  00000+0  39948-3 0  9993
2 23439  64.8186 298.1674 0156035   3.2975 356.8941 11.27583503296254
JAS-2 (FO-29)           
1 24278U 96046B   26171.04668621 -.00000015  00000+0  17773-4 0  9993
2 24278  98.5237  19.5270 0350925  89.0333 275.0987 13.53274564473555
TECHSAT 1B (GO-32)      
1 25397U 98043D   26171.22532426  .00000030  00000+0  33011-4 0  9997
2 25397  99.0068 164.0607 0001214 156.9177 203.2056 14.24428866451764
ISS (ZARYA)             
1 25544U 98067A   26171.15661001  .00008669  00000+0  16345-3 0  9997
2 25544  51.6329 285.3962 0004555 207.7610 152.3136 15.49327998572210
PCSAT (NO-44)           
1 26931U 01043C   26171.30235592  .00000048  00000+0  48882-4 0  9990
2 26931  67.0502 236.2148 0006064 264.6638  95.3772 14.31957024290897
SAUDISAT 1C (SO-50)     
1 27607U 02058C   26171.18974593  .00000729  00000+0  10356-3 0  9995
2 27607  64.5514 119.6951 0075161 261.9163  97.3411 14.83052340264905
CUTE-1 (CO-55)          
1 27844U 03031E   26170.56610412  .00000202  00000+0  10624-3 0  9992
2 27844  98.6736 179.0951 0009689 171.1603 188.9749 14.24336935192018
CUBESAT XI-IV (CO-57)   
1 27848U 03031J   26170.97745452  .00000169  00000+0  93103-4 0  9990
2 27848  98.6765 179.2116 0009219 188.6492 171.4529 14.23622052191779
MOZHAETS 4 (RS22)       
1 27939U 03042A   26171.34705185  .00000124  00000+0  27353-4 0  9999
2 27939  98.3471 355.7944 0009926 258.2610 222.2118 14.73469403216010
CUBESAT XI-V            
1 28895U 05043F   26170.91661833  .00001064  00000+0  17521-3 0  9996
2 28895  98.2988 326.5955 0013842 191.8457 168.2426 14.72637619102150
CUTE-1.7+APD II (CO-65) 
1 32785U 08021C   26171.23183503  .00004715  00000+0  29832-3 0  9991
2 32785  97.8278 152.7136 0009462  29.2800 330.8957 15.09475862985650
SEEDS II (CO-66)        
1 32791U 08021J   26170.94270999  .00015827  00000+0  50132-3 0  9994
2 32791  97.7524 168.9721 0000692 347.0777  13.0446 15.32829868987716
YUBILEINY (RS30)        
1 32953U 08025A   26171.23710631  .00000026  00000+0  11979-3 0  9994
2 32953  82.5041 353.5420 0018744 306.9538  52.9825 12.43179508820072
KKS-1 (KISEKI)          
1 33499U 09002H   26171.29256984  .00001007  00000+0  13041-3 0  9990
2 33499  98.1188  93.7841 0006423 283.6883  76.3615 14.83130633936659
SWISSCUBE               
1 35932U 09051B   26171.17902305  .00000711  00000+0  15003-3 0  9991
2 35932  98.4033  79.1195 0006171 192.6984 167.4062 14.62486325889593
BEESAT-1                
1 35933U 09051C   26170.71084495  .00000603  00000+0  13077-3 0  9991
2 35933  98.3961  78.2733 0004371 207.4388 152.6582 14.61723870889551
ITUPSAT1                
1 35935U 09051E   26171.25204672  .00000541  00000+0  12172-3 0  9990
2 35935  98.4046  78.0115 0006403 222.9093 137.1608 14.60444493889189
XIWANG-1 (HOPE-1)       
1 36122U 09072B   26171.28384512  .00000206  00000+0  65508-3 0  9996
2 36122 100.4034 125.0670 0006925 223.7061 136.3504 13.16440875793417
O/OREOS (USA 219)       
1 37224U 10062C   26171.14280665  .00001640  00000+0  16050-3 0  9991
2 37224  71.9702  73.6446 0012657  56.8090 303.4293 14.93754530117087
JUGNU                   
1 37839U 11058B   26170.40974200  .00000394  00000+0  66043-4 0  9995
2 37839  19.9617 294.9273 0018623 100.5982 300.1635 14.13777315759341
SRMSAT                  
1 37841U 11058D   26170.35988047  .00000354  00000+0  48474-4 0  9990
2 37841  19.9728  46.3158 0011744 227.6220 288.1945 14.11575972758128
STRAND-1                
1 39090U 13009E   26170.98012229  .00000194  00000+0  79707-4 0  9990
2 39090  98.3923 351.1457 0007876 216.0202 144.0455 14.37164594697463
ZACUBE-1 (TSHEPISOSAT)  
1 39417U 13066B   26170.94018519  .00002355  00000+0  18525-3 0  9991
2 39417  97.8072 133.2914 0041152 238.1921 121.5293 15.01201080681142
GOMX-1                  
1 39430U 13066Q   26171.25015190  .00001171  00000+0  18105-3 0  9992
2 39430  97.6478  11.5188 0130104  67.8557 293.6400 14.69468214670364
